{"type": "FeatureCollection", "features": [ {"type": "Feature", "properties": {"norad_id": 34833, "name": "IRIDIUM 33 DEB", "group": "iridium-33-debris", "lat": 20.28548286193433, "lon": -125.84327520413309, "alt_km": 705.026803005574, "timestamp": "2025-12-02T07:10:09.501197+00:00", "meta": {"OBJECT_NAME": "IRIDIUM 33 DEB", "OBJECT_ID": "1997-051MH", "EPOCH": "2025-12-01T17:47:26.063232", "MEAN_MOTION": 14.52261566, "ECCENTRICITY": 0.0021474, "INCLINATION": 86.3938, "RA_OF_ASC_NODE": 55.7325, "ARG_OF_PERICENTER": 132.4649, "MEAN_ANOMALY": 354.4354, "EPHEMERIS_TYPE": 0, "CLASSIFICATION_TYPE": "U", "NORAD_CAT_ID": 34833, "ELEMENT_SET_NO": 999, "REV_AT_EPOCH": 87555, "BSTAR": 0.00087496, "MEAN_MOTION_DOT": 3.584e-05, "MEAN_MOTION_DDOT": 0}, "tle": {"line1": "1 34833U 97051MH  25335.74127388  .00003584  00000+0  87496-3 0  9997", "line2": "2 34833  86.3938  55.7325 0021474 132.4649 354.4354 14.52261566875550"}}, "geometry": {"type": "Point", "coordinates": [-125.84327520413309, 20.28548286193433]}}, {"type": "Feature", "properties": {"norad_id": 34870, "name": "IRIDIUM 33 DEB", "group": "iridium-33-debris", "lat": -46.635987346549875, "lon": -45.05165047179572, "alt_km": 648.5743982917993, "timestamp": "2025-12-02T07:10:09.501207+00:00", "meta": {"OBJECT_NAME": "IRIDIUM 33 DEB", "OBJECT_ID": "1997-051MQ", "EPOCH": "2025-12-01T05:36:37.151712", "MEAN_MOTION": 14.76055324, "ECCENTRICITY": 0.0014764, "INCLINATION": 86.3102, "RA_OF_ASC_NODE": 319.3536, "ARG_OF_PERICENTER": 227.1347, "MEAN_ANOMALY": 190.7112, "EPHEMERIS_TYPE": 0, "CLASSIFICATION_TYPE": "U", "NORAD_CAT_ID": 34870, "ELEMENT_SET_NO": 999, "REV_AT_EPOCH": 88741, "BSTAR": 0.0019021, "MEAN_MOTION_DOT": 0.00013168, "MEAN_MOTION_DDOT": 0}, "tle": {"line1": "1 34870U 97051MQ  25335.23376333  .00013168  00000+0  19021-2 0  9995", "line2": "2 34870  86.3102 319.3536 0014764 227.1347 190.7112 14.76055324887418"}}, "geometry": {"type": "Point", "coordinates": [-45.05165047179572, -46.635987346549875]}}, {"type": "Feature", "properties": {"norad_id": 34896, "name": "IRIDIUM 33 DEB", "group": "iridium-33-debris", "lat": 7.996273333978377, "lon": 150.85268359506136, "alt_km": 673.3761797561283, "timestamp": "2025-12-02T07:10:09.501218+00:00", "meta": {"OBJECT_NAME": "IRIDIUM 33 DEB", "OBJECT_ID": "1997-051MY", "EPOCH": "2025-11-28T17:59:37.974912", "MEAN_MOTION": 14.66055051, "ECCENTRICITY": 0.00237461, "INCLINATION": 86.3294, "RA_OF_ASC_NODE": 332.9598, "ARG_OF_PERICENTER": 266.6712, "MEAN_ANOMALY": 266.6276, "EPHEMERIS_TYPE": 0, "CLASSIFICATION_TYPE": "U", "NORAD_CAT_ID": 34896, "ELEMENT_SET_NO": 999, "REV_AT_EPOCH": 87414, "BSTAR": 0.00096599733, "MEAN_MOTION_DOT": 5.342e-05, "MEAN_MOTION_DDOT": 0}, "tle": {"line1": "1 34896U 97051MY  25332.74974508  .00005342  00000+0  96600-3 0  9998", "line2": "2 34896  86.3294 332.9598 0023746 266.6712 266.6276 14.66055051874147"}}, "geometry": {"type": "Point", "coordinates": [150.85268359506136, 7.996273333978377]}}, {"type": "Feature", "properties": {"norad_id": 34926, "name": "IRIDIUM 33 DEB", "group": "iridium-33-debris", "lat": -5.011442630996308, "lon": 12.771999781710104, "alt_km": 668.5104496112435, "timestamp": "2025-12-02T07:10:09.501229+00:00", "meta": {"OBJECT_NAME": "IRIDIUM 33 DEB", "OBJECT_ID": "1997-051NF", "EPOCH": "2025-12-01T03:21:27.813600", "MEAN_MOTION": 14.53597235, "ECCENTRICITY": 0.00771875, "INCLINATION": 86.1338, "RA_OF_ASC_NODE": 13.648, "ARG_OF_PERICENTER": 332.2541, "MEAN_ANOMALY": 82.2149, "EPHEMERIS_TYPE": 0, "CLASSIFICATION_TYPE": "U", "NORAD_CAT_ID": 34926, "ELEMENT_SET_NO": 999, "REV_AT_EPOCH": 86288, "BSTAR": 0.0047149855, "MEAN_MOTION_DOT": 0.00020553, "MEAN_MOTION_DDOT": 0}, "tle": {"line1": "1 34926U 97051NF  25335.13990525  .00020553  00000+0  47150-2 0  9991", "line2": "2 34926  86.1338  13.6480 0077187 332.2541  82.2149 14.53597235862889"}}, "geometry": {"type": "Point", "coordinates": [12.771999781710104, -5.011442630996308]}}, {"type": "Feature", "properties": {"norad_id": 34985, "name": "IRIDIUM 33 DEB", "group": "iridium-33-debris", "lat": -32.61984577112657, "lon": -116.33900350998222, "alt_km": 748.1389293815182, "timestamp": "2025-12-02T07:10:09.501239+00:00", "meta": {"OBJECT_NAME": "IRIDIUM 33 DEB", "OBJECT_ID": "1997-051NR", "EPOCH": "2025-12-01T05:20:19.248000", "MEAN_MOTION": 14.4192555, "ECCENTRICITY": 0.0019807, "INCLINATION": 86.3697, "RA_OF_ASC_NODE": 61.7912, "ARG_OF_PERICENTER": 260.0842, "MEAN_ANOMALY": 129.3276, "EPHEMERIS_TYPE": 0, "CLASSIFICATION_TYPE": "U", "NORAD_CAT_ID": 34985, "ELEMENT_SET_NO": 999, "REV_AT_EPOCH": 87009, "BSTAR": 0.00086459, "MEAN_MOTION_DOT": 2.856e-05, "MEAN_MOTION_DDOT": 0}, "tle": {"line1": "1 34985U 97051NR  25335.22244500  .00002856  00000+0  86459-3 0  9993", "line2": "2 34985  86.3697  61.7912 0019807 260.0842 129.3276 14.41925550870093"}}, "geometry": {"type": "Point", "coordinates": [-116.33900350998222, -32.61984577112657]}}, {"type": "Feature", "properties": {"norad_id": 35051, "name": "IRIDIUM 33 DEB", "group": "iridium-33-debris", "lat": -64.05589914696063, "lon": 5.821952151730338, "alt_km": 748.4794731840229, "timestamp": "2025-12-02T07:10:09.501249+00:00", "meta": {"OBJECT_NAME": "IRIDIUM 33 DEB", "OBJECT_ID": "1997-051NX", "EPOCH": "2025-12-01T09:53:54.581856", "MEAN_MOTION": 14.47515304, "ECCENTRICITY": 0.00104451, "INCLINATION": 86.3252, "RA_OF_ASC_NODE": 13.7986, "ARG_OF_PERICENTER": 121.6547, "MEAN_ANOMALY": 238.5677, "EPHEMERIS_TYPE": 0, "CLASSIFICATION_TYPE": "U", "NORAD_CAT_ID": 35051, "ELEMENT_SET_NO": 999, "REV_AT_EPOCH": 86832, "BSTAR": 0.00073041402, "MEAN_MOTION_DOT": 2.705e-05, "MEAN_MOTION_DDOT": 0}, "tle": {"line1": "1 35051U 97051NX  25335.41243729  .00002705  00000+0  73041-3 0  9997", "line2": "2 35051  86.3252  13.7986 0010445 121.6547 238.5677 14.47515304868325"}}, "geometry": {"type": "Point", "coordinates": [5.821952151730338, -64.05589914696063]}}, {"type": "Feature", "properties": {"norad_id": 35052, "name": "IRIDIUM 33 DEB", "group": "iridium-33-debris", "lat": 65.20430656519072, "lon": 32.93371857250941, "alt_km": 750.8460590779141, "timestamp": "2025-12-02T07:10:09.501270+00:00", "meta": {"OBJECT_NAME": "IRIDIUM 33 DEB", "OBJECT_ID": "1997-051NY", "EPOCH": "2025-12-01T02:29:05.042112", "MEAN_MOTION": 14.38470014, "ECCENTRICITY": 0.00134735, "INCLINATION": 86.3321, "RA_OF_ASC_NODE": 25.4643, "ARG_OF_PERICENTER": 117.5288, "MEAN_ANOMALY": 242.7281, "EPHEMERIS_TYPE": 0, "CLASSIFICATION_TYPE": "U", "NORAD_CAT_ID": 35052, "ELEMENT_SET_NO": 999, "REV_AT_EPOCH": 87108, "BSTAR": 0.00021005584, "MEAN_MOTION_DOT": 6.61e-06, "MEAN_MOTION_DDOT": 0}, "tle": {"line1": "1 35052U 97051NY  25335.10353058  .00000661  00000+0  21006-3 0  9994", "line2": "2 35052  86.3321  25.4643 0013473 117.5288 242.7281 14.38470014871086"}}, "geometry": {"type": "Point", "coordinates": [32.93371857250941, 65.20430656519072]}}, {"type": "Feature", "properties": {"norad_id": 35080, "name": "IRIDIUM 33 DEB", "group": "iridium-33-debris", "lat": -64.94831221102103, "lon": 49.19859926599786, "alt_km": 616.0082699170262, "timestamp": "2025-12-02T07:10:09.501290+00:00", "meta": {"OBJECT_NAME": "IRIDIUM 33 DEB", "OBJECT_ID": "1997-051PF", "EPOCH": "2025-11-30T05:17:07.150560", "MEAN_MOTION": 14.83528996, "ECCENTRICITY": 0.00649663, "INCLINATION": 86.2066, "RA_OF_ASC_NODE": 58.3492, "ARG_OF_PERICENTER": 222.6272, "MEAN_ANOMALY": 136.99, "EPHEMERIS_TYPE": 0, "CLASSIFICATION_TYPE": "U", "NORAD_CAT_ID": 35080, "ELEMENT_SET_NO": 999, "REV_AT_EPOCH": 69502, "BSTAR": 0.0087445777, "MEAN_MOTION_DOT": 0.0007539, "MEAN_MOTION_DDOT": 0}, "tle": {"line1": "1 35080U 97051PF  25334.22022165  .00075390  00000+0  87446-2 0  9999", "line2": "2 35080  86.2066  58.3492 0064966 222.6272 136.9900 14.83528996695026"}}, "geometry": {"type": "Point", "coordinates": [49.19859926599786, -64.94831221102103]}}, {"type": "Feature", "properties": {"norad_id": 35297, "name": "IRIDIUM 33 DEB", "group": "iridium-33-debris", "lat": 82.37755658637454, "lon": 95.39674649651741, "alt_km": 734.281532724016, "timestamp": "2025-12-02T07:10:09.501308+00:00", "meta": {"OBJECT_NAME": "IRIDIUM 33 DEB", "OBJECT_ID": "1997-051PM", "EPOCH": "2025-11-28T13:02:32.385696", "MEAN_MOTION": 14.4505178, "ECCENTRICITY": 0.00162447, "INCLINATION": 86.3859, "RA_OF_ASC_NODE": 68.817, "ARG_OF_PERICENTER": 185.2069, "MEAN_ANOMALY": 174.8967, "EPHEMERIS_TYPE": 0, "CLASSIFICATION_TYPE": "U", "NORAD_CAT_ID": 35297, "ELEMENT_SET_NO": 999, "REV_AT_EPOCH": 70221, "BSTAR": 0.00072341306, "MEAN_MOTION_DOT": 2.549e-05, "MEAN_MOTION_DDOT": 0}, "tle": {"line1": "1 35297U 97051PM  25332.54343039  .00002549  00000+0  72341-3 0  9993", "line2": "2 35297  86.3859  68.8170 0016244 185.2069 174.8967 14.45051780702214"}}, "geometry": {"type": "Point", "coordinates": [95.39674649651741, 82.37755658637454]}}, {"type": "Feature", "properties": {"norad_id": 35299, "name": "IRIDIUM 33 DEB", "group": "iridium-33-debris", "lat": 1.7777897076192515, "lon": -142.38440618938515, "alt_km": 727.9429141251321, "timestamp": "2025-12-02T07:10:09.501330+00:00", "meta": {"OBJECT_NAME": "IRIDIUM 33 DEB", "OBJECT_ID": "1997-051PP", "EPOCH": "2025-11-30T15:04:09.703776", "MEAN_MOTION": 14.40761556, "ECCENTRICITY": 0.00584597, "INCLINATION": 86.2896, "RA_OF_ASC_NODE": 38.4578, "ARG_OF_PERICENTER": 141.04, "MEAN_ANOMALY": 15.9157, "EPHEMERIS_TYPE": 0, "CLASSIFICATION_TYPE": "U", "NORAD_CAT_ID": 35299, "ELEMENT_SET_NO": 999, "REV_AT_EPOCH": 86156, "BSTAR": 0.00082357118, "MEAN_MOTION_DOT": 2.707e-05, "MEAN_MOTION_DDOT": 0}, "tle": {"line1": "1 35299U 97051PP  25334.62789009  .00002707  00000+0  82357-3 0  9991", "line2": "2 35299  86.2896  38.4578 0058459 141.0400  15.9157 14.40761556861568"}}, "geometry": {"type": "Point", "coordinates": [-142.38440618938515, 1.7777897076192515]}}]}